17P/Holmes,e,19.0244,326.6290,24.5864,3.638686,0.1419996,0.42731166,125.6840,07/25.0/2023,2000,g 10.0,6.0
# From MPEC 2023-KD6
19P/Borrelly,e,29.3089,74.2259,351.9514,3.606865,0.1438829,0.63784813,77.4221,07/25.0/2023,2000,g  4.5,10.0
# From MPEC 2021-F20
21P/Giacobini-Zinner,e,32.0584,195.3450,172.9012,3.494362,0.1508871,0.71124480,268.0377,07/25.0/2023,2000,g 11.4,4.0
# From MPEC 2023-BF4
22P/Kopff,e,4.7436,120.7047,162.9743,3.437746,0.1546298,0.54980255,76.3502,07/25.0/2023,2000,g  3.0,10.4
# From MPC 14747
23P/Brorsen-Metcalf,e,19.2794,311.8609,129.3204,16.94188,0.0141339,0.97227345,0.0000,08/14.3696/1989,2000,g 10.0,6.0
# From MPC110085
24P/Schaumasse,e,11.5026,78.3064,58.4632,4.055512,0.1206801,0.70776911,251.5455,07/25.0/2023,2000,g  6.5,14.0
# From MPEC 2022-Y15
26P/Grigg-Skjellerup,e,22.4330,211.5410,2.1516,3.015517,0.1882181,0.64057059,331.1369,07/25.0/2023,2000,g 12.0,16.0
# From MPC 78188
27P/Crommelin,e,29.3900,250.6832,195.8456,9.180171,0.0354346,0.91919725,155.2743,07/25.0/2023,2000,g 12.0,8.0
# From MPEC 2023-FK0
28P/Neujmin,e,14.3093,346.3501,347.4734,6.982304,0.0534203,0.77348768,46.2251,07/25.0/2023,2000,g  8.5,6.0
# From MPEC 2023-N01
29P/Schwassmann-Wachmann,e,9.3621,312.4016,51.4359,6.049770,0.0662363,0.04453133,102.6936,07/25.0/2023,2000,g  4.0,4.0
# From MPEC 2023-CD7
30P/Reinmuth,e,8.0519,117.3675,9.4403,3.736712,0.1364488,0.51536298,306.9081,07/25.0/2023,2000,g  9.5,6.0
# From MPEC 2021-F20
31P/Schwassmann-Wachmann,e,4.5488,114.1050,17.8560,4.234672,0.1131031,0.19250541,167.6999,07/25.0/2023,2000,g 13.1,4.0
# From MPEC 2023-O39
32P/ComasSola,e,9.9185,54.5333,54.6824,4.559955,0.1012193,0.55616817,332.6141,07/25.0/2023,2000,g  6.5,8.0
# From MPEC 2023-J29
33P/Daniel,e,22.2938,66.2934,20.4379,4.089398,0.1191832,0.45192183,303.3290,07/25.0/2023,2000,g 10.0,12.0
# From  15, 452
35P/Herschel-Rigollet,e,65.148,356.653,29.014,28.5428,0.006463,0.9744658,0.000,02/25.1000/2092,2000,g  9.0,4.0
# From MPEC 2022-ED3
36P/Whipple,e,9.9524,181.8415,201.0875,4.137987,0.1170902,0.26900163,134.4028,07/25.0/2023,2000,g  8.5,6.0
# From MPEC 2021-F20
37P/Forbes,e,8.9496,314.5641,330.0884,3.462229,0.1529926,0.53294456,292.0300,07/25.0/2023,2000,g 13.8,4.0
# From MPEC 2018-S50
38P/Stephan-Oterma,e,18.3995,77.8860,359.5160,11.24186,0.0261485,0.85958969,44.8632,07/25.0/2023,2000,g  3.5,12.0
# From MPEC 2022-A21
39P/Oterma,e,1.5490,295.6756,103.5649,7.216918,0.0508366,0.20919319,0.5559,07/25.0/2023,2000,g  7.0,6.0
# From MPC100283
40P/Vaisala,e,11.4553,133.3776,47.7465,4.957523,0.0892909,0.63211648,284.7918,07/25.0/2023,2000,g  5.5,12.0
# From MPEC 2023-J29
41P/Tuttle-Giacobini-Kresak,e,9.2198,140.9871,62.2223,3.088281,0.1816055,0.65984149,57.1007,07/25.0/2023,2000,g 10.0,16.0
# From MPC 94283
42P/Neujmin,e,3.9904,150.1756,147.2124,4.874638,0.0915779,0.58439387,277.1389,07/25.0/2023,2000,g 13.0,6.0
# From MPEC 2023-J29
43P/Wolf-Harrington,e,9.3471,244.0250,224.2354,4.328622,0.1094409,0.43445726,277.8464,07/25.0/2023,2000,g  8.0,6.0
# From MPEC 2023-J29
44P/Reinmuth,e,5.8972,286.4270,58.0241,3.688036,0.1391590,0.42729979,63.7416,07/25.0/2023,2000,g  8.3,6.0
# From MPEC 2022-O01
45P/Honda-Mrkos-Pajdusakova,e,4.3235,87.6824,327.9328,3.056027,0.1844880,0.81771054,83.7561,07/25.0/2023,2000,g 13.5,8.0
# From MPEC 2023-J29
46P/Wirtanen,e,11.7495,82.1634,356.3265,3.091136,0.1813539,0.65873866,305.7529,07/25.0/2023,2000,g 14.0,6.0
# From MPEC 2023-J29
47P/Ashbrook-Jackson,e,13.0392,356.9149,357.7903,4.121325,0.1178010,0.31868517,262.7568,07/25.0/2023,2000,g  1.0,11.2
# From MPEC 2023-FK0
48P/Johnson,e,12.2002,110.0820,216.7556,3.501023,0.1504567,0.42703488,271.7561,07/25.0/2023,2000,g 10.0,6.0
# From MPEC 2023-O39
49P/Arend-Rigaux,e,19.0549,118.7915,332.9232,3.569295,0.1461607,0.59871125,268.5404,07/25.0/2023,2000,g 11.3,4.4
# From MPEC 2015-S97
50P/Arend,e,19.1013,355.1724,49.3580,4.087581,0.1192627,0.52970441,325.0758,07/25.0/2023,2000,g  9.5,6.0
# From MPEC 2023-J29
51P/Harrington,e,5.4267,83.6615,269.2395,3.705975,0.1381498,0.54333375,40.9975,07/25.0/2023,2000,g 10.0,8.0
# From NK 3014
51P-A/Harrington,e,5.4266,83.6616,269.2106,3.707641,0.1380567,0.54357280,40.6163,07/25.0/2023,2000,g 10.0,8.0
# From MPEC 2023-J29
51P-D/Harrington,e,5.4271,83.6498,269.2578,3.706334,0.1381298,0.54346342,40.9331,07/25.0/2023,2000,g 16.0,8.0
# From MPEC 2023-J29
52P/Harrington-Abell,e,10.2311,336.8183,139.5556,3.863367,0.1297942,0.54040814,85.3724,07/25.0/2023,2000,g 13.5,6.0
# From MPEC 2023-J29
53P/VanBiesbroeck,e,6.6071,148.8293,134.4763,5.433583,0.0778170,0.55020619,205.7893,07/25.0/2023,2000,g  7.7,4.8
# From MPC 89011
54P/de Vico-Swift-NEAT,e,6.0640,358.8075,1.9214,3.787584,0.1337090,0.42644752,305.6077,07/25.0/2023,2000,g  9.0,4.0
# From MPC 31070
55P/Tempel-Tuttle,e,162.5132,235.4225,172.4749,10.35468,0.0295800,0.90521134,275.4506,07/25.0/2023,2000,g  9.0,4.0
# From MPEC 2023-J29
56P/Slaughter-Burnham,e,8.1583,345.9686,44.0773,5.065493,0.0864513,0.50861764,221.0435,07/25.0/2023,2000,g  8.5,6.0
# From MPEC 2023-HD1
57P/duToit-Neujmin-Delporte,e,2.8524,188.7773,115.1228,3.443083,0.1542705,0.50081594,99.6444,07/25.0/2023,2000,g 13.7,4.0
# From MPEC 2023-J29
58P/Jackson-Neujmin,e,13.1062,159.0701,200.5375,4.088547,0.1192204,0.66260997,137.4941,07/25.0/2023,2000,g 15.5,6.0
# From MPEC 2023-A50
59P/Kearns-Kwee,e,9.3461,312.7755,127.5399,4.482452,0.1038558,0.47640431,183.9130,07/25.0/2023,2000,g  7.0,6.0
# From MPEC 2021-F20
60P/Tsuchinshan,e,3.5798,267.4283,216.9817,3.526551,0.1488260,0.53358192,251.8147,07/25.0/2023,2000,g 11.5,6.0
# From MPEC 2023-J29
61P/Shajn-Schaldach,e,5.9995,162.9606,221.6374,3.688524,0.1391314,0.42367090,38.1606,07/25.0/2023,2000,g  6.0,10.0
# From MPEC 2023-J29
62P/Tsuchinshan,e,4.7385,68.6971,47.2660,3.370421,0.1592861,0.62475179,335.5884,07/25.0/2023,2000,g  8.0,10.0
# From MPC 84320
63P/Wild,e,19.7004,357.9898,168.9182,5.619810,0.0739812,0.65014217,280.1897,07/25.0/2023,2000,g 10.5,6.0
# From MPEC 2023-A50
64P/Swift-Gehrels,e,8.9494,299.8770,97.2002,4.452445,0.1049074,0.68874364,180.6472,07/25.0/2023,2000,g  9.5,12.0
# From MPEC 2023-KD6
65P/Gunn,e,9.1758,61.9805,213.8385,3.889782,0.1284743,0.24827897,270.9579,07/25.0/2023,2000,g  5.0,6.0
# From MPEC 2021-F20
66P/duToit,e,18.6388,21.7784,257.4879,6.070701,0.0658940,0.78558536,124.8559,07/25.0/2023,2000,g 15.0,4.0
# From MPEC 2023-J29
67P/Churyumov-Gerasimenko,e,3.8718,36.3291,22.1561,3.457610,0.1532993,0.64994817,96.5458,07/25.0/2023,2000,g 11.0,4.0
# From MPEC 2023-HD1
68P/Klemola,e,11.1104,175.0519,153.2603,4.960202,0.0892185,0.63693043,120.8248,07/25.0/2023,2000,g 12.6,4.0
# From MPEC 2023-A50
69P/Taylor,e,22.0509,104.8042,343.4004,3.883706,0.1287759,0.41410904,204.6244,07/25.0/2023,2000,g  9.5,12.0
# From MPEC 2023-G31
70P/Kojima,e,6.5986,119.2496,1.7852,3.677057,0.1397827,0.45405202,87.9074,07/25.0/2023,2000,g 11.0,6.0
# From MPEC 2023-O39
71P/Clark,e,9.4383,59.3912,209.0782,3.138621,0.1772539,0.49375643,32.4715,07/25.0/2023,2000,g  9.8,6.0
# From MPEC 2023-N01
72P/Denning-Fujikawa,e,10.9491,26.6962,346.7345,4.307439,0.1102492,0.81867679,4.3247,07/25.0/2023,2000,g 17.5,10.0
# From MPEC 2023-J29
73P/Schwassmann-Wachmann,e,11.2420,69.5606,199.5069,3.093663,0.1811317,0.68597705,60.3259,07/25.0/2023,2000,g 11.5,6.0
# From MPEC 2023-J29
73P-T/Schwassmann-Wachmann,e,11.2458,69.5658,199.4866,3.092391,0.1812435,0.68589027,60.5802,07/25.0/2023,2000,g  9.0,4.0
# From MPEC 2022-P18
73P-U/Schwassmann-Wachmann,e,11.0814,70.6361,199.8803,2.876754,0.2019994,0.66665067,67.4645,07/25.0/2023,2000,g 19.0,4.0
# From MPEC 2022-X67
73P-V/Schwassmann-Wachmann,e,11.2585,69.4372,199.3851,3.147152,0.1765337,0.69090086,58.9355,07/25.0/2023,2000,g 19.0,4.0
# From MPEC 2022-R15
73P-W/Schwassmann-Wachmann,e,11.6311,67.2082,198.8281,4.602597,0.0998159,0.78296804,33.2667,07/25.0/2023,2000,g 18.2,4.0
# From MPEC 2023-A50
73P-X/Schwassmann-Wachmann,e,11.2740,69.4309,199.4030,3.126392,0.1782949,0.68884738,59.4643,07/25.0/2023,2000,g 17.5,4.0
# From MPEC 2022-R15
73P-Y/Schwassmann-Wachmann,e,11.2118,69.7199,199.4776,3.035331,0.1863781,0.68057598,62.3542,07/25.0/2023,2000,g 17.4,4.0
# From MPEC 2022-P18
73P-BU/Schwassmann-Wachmann,e,11.0814,70.6361,199.8803,2.876754,0.2019994,0.66665067,67.4645,07/25.0/2023,2000,g 19.0,4.0
# From MPEC 2022-X67
73P-BV/Schwassmann-Wachmann,e,11.2585,69.4372,199.3851,3.147152,0.1765337,0.69090086,58.9355,07/25.0/2023,2000,g 19.0,4.0
# From MPEC 2022-R15
73P-BW/Schwassmann-Wachmann,e,11.6311,67.2082,198.8281,4.602597,0.0998159,0.78296804,33.2667,07/25.0/2023,2000,g 18.2,4.0
# From MPEC 2023-A50
73P-BX/Schwassmann-Wachmann,e,11.2740,69.4309,199.4030,3.126392,0.1782949,0.68884738,59.4643,07/25.0/2023,2000,g 17.5,4.0
# From MPEC 2022-R15
73P-BY/Schwassmann-Wachmann,e,11.2118,69.7199,199.4776,3.035331,0.1863781,0.68057598,62.3542,07/25.0/2023,2000,g 17.4,4.0
# From MPEC 2023-J95
74P/Smirnova-Chernykh,e,6.4661,53.8019,138.5321,4.727295,0.0958926,0.06189691,190.9965,07/25.0/2023,2000,g  5.0,6.0
# From MPEC 2022-K19
76P/West-Kohoutek-Ikemura,e,30.4893,84.1054,359.9378,3.470072,0.1524742,0.53895054,208.4759,07/25.0/2023,2000,g  8.0,12.0
# From MPEC 2023-O39
77P/Longmore,e,24.3186,14.7677,196.7222,3.623562,0.1428896,0.35181440,16.1337,07/25.0/2023,2000,g  7.0,8.0
# From MPEC 2021-O56
78P/Gehrels,e,6.2576,210.5205,192.6627,3.736425,0.1364645,0.46305969,214.5536,07/25.0/2023,2000,g  5.5,8.0
# From MPC 94675
79P/du Toit-Hartley,e,3.1487,280.5194,281.7881,2.943962,0.1951218,0.61920883,346.8566,07/25.0/2023,2000,g 16.0,4.0
# From MPEC 2023-O39
80P/Peters-Hartley,e,29.9230,259.7945,339.2479,4.023212,0.1221363,0.59847167,27.8658,07/25.0/2023,2000,g  9.0,8.0
# From MPEC 2023-O39
81P/Wild,e,3.2364,136.0967,41.6175,3.453957,0.1535425,0.53724605,33.9945,07/25.0/2023,2000,g  7.0,6.0
# From MPC133426
82P/Gehrels,e,1.1291,239.2441,226.3986,4.132943,0.1173046,0.12218301,218.0081,07/25.0/2023,2000,g 15.0,4.0
# From MPEC 2020-FB5
84P/Giclas,e,7.5503,108.1221,281.6659,3.549984,0.1473549,0.51610115,168.7852,07/25.0/2023,2000,g  9.5,8.0
# From MPEC 2022-YB4
